NORAD_CAT_ID,OBJECT_NAME,OBJECT_TYPE,EPOCH,MEAN_MOTION,ECCENTRICITY,INCLINATION,RA_OF_ASC_NODE,ARG_OF_PERICENTER,MEAN_ANOMALY,BSTAR,MEAN_MOTION_DOT,MEAN_MOTION_DDOT,TLE_LINE0,TLE_LINE1,TLE_LINE2,SEMIMAJOR_AXIS,PERIOD,APOGEE,PERIGEE,DECAYED
52120.0,STARLINK-3534,PAYLOAD,2022-03-31 04:00:00,15.73199048,0.0001033,53.2164,84.8192,61.3608,32.4017,-0.00037017,-0.00052245,0.0,0 STARLINK-3534,1 52120U 22029AJ  22090.16667824 -.00052245  00000-0 -37017-3 0  9999,2 52120  53.2164  84.8192 0001033  61.3608  32.4017 15.73199048  3159,6727.898,91.533,350.458,349.0680000000001,0.0
52120.0,STARLINK-3534,PAYLOAD,2022-03-31 12:00:00,15.73199776,0.0001041,53.2162,83.1704,54.36600000000001,128.3187,0.00040978,0.00057282,0.0,0 STARLINK-3534,1 52120U 22029AJ  22090.50001157  .00057282  00000-0  40978-3 0  9992,2 52120  53.2162  83.1704 0001041  54.3660 128.3187 15.73199776  3204,6727.896,91.533,350.461,349.06,0.0
52120.0,STARLINK-3534,PAYLOAD,2022-03-31 14:00:01,15.73254959,0.0001019,53.2163,82.7572,55.8125,239.0983,-0.00022367,-0.00031964,0.0,0 STARLINK-3534,1 52120U 22029AJ  22090.58334491 -.00031964  00000-0 -22367-3 0  9993,2 52120  53.2163  82.7572 0001019  55.8125 239.0983 15.73254959  2691,6727.738,91.53,350.289,348.918,0.0
52120.0,STARLINK-3534,PAYLOAD,2022-03-31 22:00:00,15.73204008,0.0001106,53.2168,81.1059,72.1121,311.7882,0.00061942,0.00087233,0.0,0 STARLINK-3534,1 52120U 22029AJ  22090.91667824  .00087233  00000-0  61942-3 0  9999,2 52120  53.2168  81.1059 0001106  72.1121 311.7882 15.73204008  2757,6727.884,91.533,350.49300000000005,349.005,0.0
52120.0,STARLINK-3534,PAYLOAD,2022-04-01 04:00:01,15.73299282,0.0001142,53.217,79.8701,65.6811,295.0097,-0.00072319,-0.00101328,0.0,0 STARLINK-3534,1 52120U 22029AJ  22091.16668981 -.00101328  00000-0 -72319-3 0  9996,2 52120  53.2170  79.8701 0001142  65.6811 295.0097 15.73299282  3303,6727.611999999999,91.527,350.245,348.709,0.0
52120.0,STARLINK-3534,PAYLOAD,2022-04-01 14:00:01,15.73241334,0.0001179,53.2166,77.8081,64.6902,137.1654,-0.00073302,-0.0010243,0.0,0 STARLINK-3534,1 52120U 22029AJ  22091.58334491 -.00102430  00000-0 -73302-3 0  9996,2 52120  53.2166  77.8081 0001179  64.6902 137.1654 15.73241334  2856,6727.776999999999,91.531,350.436,348.849,0.0
52120.0,STARLINK-3534,PAYLOAD,2022-04-01 20:00:01,15.73169872,0.0001179,53.2166,76.5696,76.7792,101.7969,-1.8404e-05,-3.198e-05,0.0,0 STARLINK-3534,1 52120U 22029AJ  22091.83334491 -.00003198  00000-0 -18404-4 0  9998,2 52120  53.2166  76.5696 0001179  76.7792 101.7969 15.73169872  3410,6727.981,91.535,350.639,349.05300000000005,0.0
52120.0,STARLINK-3534,PAYLOAD,2022-04-01 22:00:00,15.73168401,0.000127,53.2169,76.1572,80.0356,210.7645,-3.3891e-05,-5.366e-05,0.0,0 STARLINK-3534,1 52120U 22029AJ  22091.91667824 -.00005366  00000-0 -33891-4 0  9992,2 52120  53.2169  76.1572 0001270  80.0356 210.7645 15.73168401  2900,6727.985,91.535,350.705,348.996,0.0
52120.0,STARLINK-3534,PAYLOAD,2022-04-02 20:00:01,15.73172737,0.0001123,53.2172,71.6213,80.9541,4.3003,0.00020946,0.00028843,0.0,0 STARLINK-3534,1 52120U 22029AJ  22092.83334491  .00028843  00000-0  20946-3 0  9994,2 52120  53.2172  71.6213 0001123  80.9541   4.3003 15.73172737  3574,6727.973000000001,91.535,350.593,349.082,0.0
52120.0,STARLINK-3534,PAYLOAD,2022-04-02 22:00:01,15.73203282,0.000117,53.2174,71.2089,84.3147,113.2215,-0.00017831,-0.00025571,0.0,0 STARLINK-3534,1 52120U 22029AJ  22092.91668981 -.00025571  00000-0 -17831-3 0  9993,2 52120  53.2174  71.2089 0001170  84.3147 113.2215 15.73203282  3064,6727.886,91.533,350.538,348.964,0.0
52120.0,STARLINK-3534,PAYLOAD,2022-04-03 04:00:00,15.73179705,0.000123,53.2176,69.9735,73.6498,100.5131,-0.00050301,-0.00070563,0.0,0 STARLINK-3534,1 52120U 22029AJ  22093.16667824 -.00070563  00000-0 -50301-3 0  9996,2 52120  53.2176  69.9735 0001230  73.6498 100.5131 15.73179705  3625,6727.953,91.534,350.646,348.99,0.0
52120.0,STARLINK-3534,PAYLOAD,2022-04-03 12:00:00,15.73160489,0.0001129,53.2173,68.3243,70.1498,192.8796,0.00017136,0.00023456,0.0,0 STARLINK-3534,1 52120U 22029AJ  22093.50001157  .00023456  00000-0  17136-3 0  9991,2 52120  53.2173  68.3243 0001129  70.1498 192.8796 15.73160489  3673,6728.0080000000025,91.535,350.63199999999995,349.11300000000006,0.0
52120.0,STARLINK-3534,PAYLOAD,2022-04-03 20:00:01,15.73118297,0.0001232,53.2175,66.6732,85.4865,266.5008,0.00061327,0.00086031,0.0,0 STARLINK-3534,1 52120U 22029AJ  22093.83335648  .00086031  00000-0  61327-3 0  9991,2 52120  53.2175  66.6732 0001232  85.4865 266.5008 15.73118297  3722,6728.128000000002,91.538,350.82199999999995,349.164,0.0
52120.0,STARLINK-3534,PAYLOAD,2022-04-03 22:00:00,15.73128557,0.0001276,53.2177,66.2611,87.5678,16.5648,0.00067668,0.00095136,0.0,0 STARLINK-3534,1 52120U 22029AJ  22093.91667824  .00095136  00000-0  67668-3 0  9994,2 52120  53.2177  66.2611 0001276  87.5678  16.5648 15.73128557  3227,6728.099,91.537,350.82199999999995,349.105,0.0
52120.0,STARLINK-3534,PAYLOAD,2022-04-04 12:00:00,15.73183561,0.0001013,53.2174,63.3765,76.3471,93.3601,0.00042246,0.00059045,0.0,0 STARLINK-3534,1 52120U 22029AJ  22094.50001157  .00059045  00000-0  42246-3 0  9995,2 52120  53.2174  63.3765 0001013  76.3471  93.3601 15.73183561  3833,6727.941999999999,91.534,350.48900000000015,349.126,0.0
52120.0,STARLINK-3534,PAYLOAD,2022-04-04 14:00:01,15.73201524,9.96e-05,53.2176,62.9635,81.2921,200.6404,0.00034207,0.00047663,0.0,0 STARLINK-3534,1 52120U 22029AJ  22094.58334491  .00047663  00000-0  34207-3 0  9994,2 52120  53.2176  62.9635 0000996  81.2921 200.6404 15.73201524  3339,6727.891,91.533,350.426,349.086,0.0
52120.0,STARLINK-3534,PAYLOAD,2022-04-04 22:00:00,15.73254409,9.98e-05,53.2182,61.3131,90.2516,280.6246,0.00047016,0.00066038,0.0,0 STARLINK-3534,1 52120U 22029AJ  22094.91667824  .00066038  00000-0  47016-3 0  9999,2 52120  53.2182  61.3131 0000998  90.2516 280.6246 15.73254409  3389,6727.74,91.53,350.276,348.934,0.0
52120.0,STARLINK-3534,PAYLOAD,2022-04-05 14:00:01,15.73251234,0.0001081,53.218,58.0148,83.6229,105.3397,-0.00083707,-0.00116733,0.0,0 STARLINK-3534,1 52120U 22029AJ  22095.58335648 -.00116733  00000-0 -83707-3 0  9996,2 52120  53.2180  58.0148 0001081  83.6229 105.3397 15.73251234  4002,6727.749,91.53,350.341,348.88699999999994,0.0
52120.0,STARLINK-3534,PAYLOAD,2022-04-05 22:00:00,15.7314916,0.0001123,53.2181,56.3649,95.0469,182.7862,0.00029515,0.00040914,0.0,0 STARLINK-3534,1 52120U 22029AJ  22095.91667824  .00040914  00000-0  29515-3 0  9999,2 52120  53.2181  56.3649 0001123  95.0469 182.7862 15.73149160  3548,6728.04,91.536,350.661,349.15,0.0
52120.0,STARLINK-3534,PAYLOAD,2022-04-06 04:00:00,15.73178423,0.0001183,53.2178,55.1298,84.5728,169.9145,-0.00034658,-0.00048932,0.0,0 STARLINK-3534,1 52120U 22029AJ  22096.16667824 -.00048932  00000-0 -34658-3 0  9991,2 52120  53.2178  55.1298 0001183  84.5728 169.9145 15.73178423  4094,6727.956999999999,91.534,350.61800000000005,349.026,0.0
52120.0,STARLINK-3534,PAYLOAD,2022-04-06 12:00:00,15.73161234,0.0001202,53.2176,53.4799,87.0132,256.3505,0.00032078,0.00044563,0.0,0 STARLINK-3534,1 52120U 22029AJ  22096.50001157  .00044563  00000-0  32078-3 0  9998,2 52120  53.2176  53.4799 0001202  87.0132 256.3505 15.73161234  4147,6728.005999999999,91.535,350.67900000000014,349.06199999999984,0.0
52120.0,STARLINK-3534,PAYLOAD,2022-04-06 14:00:01,15.73169608,0.0001188,53.2178,53.067,92.3073,3.2768,0.00035627,0.0004961,0.0,0 STARLINK-3534,1 52120U 22029AJ  22096.58334491  .00049610  00000-0  35627-3 0  9997,2 52120  53.2178  53.0670 0001188  92.3073   3.2768 15.73169608  3657,6727.982,91.535,350.646,349.048,0.0
52120.0,STARLINK-3534,PAYLOAD,2022-04-06 22:00:00,15.73219696,0.0001252,53.2182,51.417,100.382,84.1089,0.00056948,0.00080136,0.0,0 STARLINK-3534,1 52120U 22029AJ  22096.91667824  .00080136  00000-0  56948-3 0  9990,2 52120  53.2182  51.4170 0001252 100.3820  84.1089 15.73219696  3704,6727.839,91.532,350.546,348.862,0.0
52120.0,STARLINK-3534,PAYLOAD,2022-04-07 14:00:01,15.73211719,0.0001179,53.218,48.1185,96.1409,266.312,0.00018543,0.00025496,0.0,0 STARLINK-3534,1 52120U 22029AJ  22097.58334491  .00025496  00000-0  18543-3 0  9992,2 52120  53.2180  48.1185 0001179  96.1409 266.3120 15.73211719  3724,6727.861999999999,91.532,350.52,348.934,0.0
52120.0,STARLINK-3534,PAYLOAD,2022-04-07 20:00:01,15.73247108,0.0001325,53.218,46.8807,100.746,238.4147,-4.5917e-05,-7.072e-05,0.0,0 STARLINK-3534,1 52120U 22029AJ  22097.83334491 -.00007072  00000-0 -45917-4 0  9998,2 52120  53.2180  46.8807 0001325 100.7460 238.4147 15.73247108  4352,6727.761,91.53,350.517,348.7340000000001,0.0
52120.0,STARLINK-3534,PAYLOAD,2022-04-07 22:00:00,15.73261187,0.0001351999999999,53.218,46.4689,100.1204,351.2807,-0.00025209,-0.00035941,0.0,0 STARLINK-3534,1 52120U 22029AJ  22097.91667824 -.00035941  00000-0 -25209-3 0  9993,2 52120  53.2180  46.4689 0001352 100.1204 351.2807 15.73261187  3704,6727.721,91.53,350.495,348.676,0.0
52120.0,STARLINK-3534,PAYLOAD,2022-04-08 14:00:03,15.73272208,0.0001043,53.2177,43.1699,104.7197,164.7839,-0.00053994,-0.00075947,0.0,0 STARLINK-3534,1 52120U 22029AJ  22098.58336806 -.00075947  00000-0 -53994-3 0  9992,2 52120  53.2177  43.1699 0001043 104.7197 164.7839 15.73272208  3712,6727.689,91.529,350.256,348.853,0.0
52120.0,STARLINK-3534,PAYLOAD,2022-04-08 22:00:00,15.7322612,0.0001051,53.218,41.5202,108.0487,250.2817,-0.00040679,-0.00057384,0.0,0 STARLINK-3534,1 52120U 22029AJ  22098.91667824 -.00057384  00000-0 -40679-3 0  9997,2 52120  53.2180  41.5202 0001051 108.0487 250.2817 15.73226120  3681,6727.821,91.532,350.39300000000014,348.97900000000016,0.0
52120.0,STARLINK-3534,PAYLOAD,2022-04-09 04:00:00,15.73180736,0.0001039,53.2179,40.2847,96.2774,238.7509,-0.00032101,-0.0004539,0.0,0 STARLINK-3534,1 52120U 22029AJ  22099.16667824 -.00045390  00000-0 -32101-3 0  9990,2 52120  53.2179  40.2847 0001039  96.2774 238.7509 15.73180736  4562,6727.95,91.534,350.514,349.116,0.0
